     2.100          NAVIGATION                              RINEX VERSION / TYPE
fic2rin                                 08/09/2013 00:14:58 PGM / RUN BY / DATE
                                                            END OF HEADER
26 13  8  8  8  0  0.0  .132703222334D-03  .172803993337D-10  .000000000000D+00
     .610000000000D+02 -.538750000000D+02  .428374986395D-08  .206358062851D+01
    -.310875475407D-05  .210580346175D-01  .827759504318D-05  .515368772316D+04
     .374400000000D+06  .106170773506D-06 -.531436025175D+00 -.461935997009D-06
     .978230809685D+00  .227593750000D+03  .124805757033D+01 -.767889128522D-08
    -.529307762079D-09  .100000000000D+01  .175200000000D+04  .000000000000D+00
     .240000000000D+01  .000000000000D+00 -.558793544769D-08  .610000000000D+02
     .367206000000D+06  .400000000000D+01
27 13  8  8  8  0  0.0 -.211545266211D-04 -.488853402203D-11  .000000000000D+00
     .600000000000D+01 -.979375000000D+02  .448590114150D-08  .253356388904D+01
    -.506453216076D-05  .359070952982D-03  .575743615627D-05  .515366641617D+04
     .374400000000D+06  .186264514923D-07  .251291820310D+01  .223517417908D-07
     .960786341065D+00  .268875000000D+03  .885467367384D+00 -.822534261854D-08
    -.338228374284D-09  .100000000000D+01  .175200000000D+04  .000000000000D+00
     .240000000000D+01  .000000000000D+00  .186264514923D-08  .600000000000D+01
     .367206000000D+06  .400000000000D+01
28 13  8  8  8  0  0.0  .282408669591D-03  .318323145621D-11  .000000000000D+00
     .810000000000D+02  .550937500000D+02  .418267422517D-08 -.217984634568D+01
     .291131436825D-05  .186614217237D-01  .264123082161D-05  .515364497948D+04
     .374400000000D+06  .301748514175D-06  .152644884882D+01 -.447034835815D-07
     .983654628204D+00  .340156250000D+03 -.176512348142D+01 -.787389940809D-08
     .213937482783D-09  .100000000000D+01  .175200000000D+04  .000000000000D+00
     .340000000000D+01  .000000000000D+00 -.107102096081D-07  .810000000000D+02
     .367206000000D+06  .400000000000D+01
29 13  8  8  8  0  0.0  .460376031697D-03  .318323145621D-11  .000000000000D+00
     .130000000000D+02 -.103468750000D+03  .436982487789D-08 -.175188852153D+00
    -.532530248165D-05  .161427666899D-02  .588409602642D-05  .515360540009D+04
     .374400000000D+06 -.372529029846D-07  .256541880586D+01 -.122934579849D-06
     .966897444348D+00  .271375000000D+03 -.970116974477D+00 -.811926677148D-08
    -.391087718945D-09  .100000000000D+01  .175200000000D+04  .000000000000D+00
     .240000000000D+01  .000000000000D+00 -.931322574615D-08  .130000000000D+02
     .367206000000D+06  .400000000000D+01
31 13  8  8  8  0  0.0  .322881154716D-03  .909494701773D-12  .000000000000D+00
     .105000000000D+03  .555000000000D+02  .384301721995D-08  .530483719633D+00
     .276789069176D-05  .786275963765D-02  .111237168312D-04  .515365013313D+04
     .374400000000D+06  .242143869400D-07  .447097231120D+00 -.126659870148D-06
     .980428595403D+00  .177875000000D+03 -.734795917737D+00 -.775460872487D-08
    -.364300888880D-10  .100000000000D+01  .175200000000D+04  .000000000000D+00
     .240000000000D+01  .000000000000D+00 -.130385160446D-07  .105000000000D+03
     .367206000000D+06  .400000000000D+01
32 13  8  8  8  0  0.0 -.555729493499D-03  .159161572810D-11  .000000000000D+00
     .690000000000D+02  .315937500000D+02  .534165107264D-08  .100233298045D+01
     .163540244102D-05  .115930208704D-01  .413507223129D-05  .515361944962D+04
     .374400000000D+06  .268220901489D-06 -.158676054761D+01  .115483999252D-06
     .948452136416D+00  .295406250000D+03 -.324080710234D+00 -.851642617191D-08
     .268582616115D-09  .100000000000D+01  .175200000000D+04  .000000000000D+00
     .240000000000D+01  .000000000000D+00 -.279396772385D-08  .690000000000D+02
     .367206000000D+06  .400000000000D+01
22 13  8  8  7 59 44.0  .179139897227D-03  .181898940355D-11  .000000000000D+00
     .460000000000D+02  .429687500000D+02  .571845248221D-08 -.205251264821D+01
     .219047069550D-05  .680820411071D-02  .442005693913D-05  .515364397812D+04
     .374384000000D+06  .838190317154D-07 -.167221295002D+01  .521540641785D-07
     .924301091022D+00  .270875000000D+03 -.203264840337D+01 -.864893169129D-08
     .477877048354D-09  .100000000000D+01  .175200000000D+04  .000000000000D+00
     .240000000000D+01  .000000000000D+00 -.172294676304D-07  .460000000000D+02
     .367956000000D+06  .400000000000D+01
 1 13  8  8  7 59 44.0  .604102388024D-04  .466116034659D-11  .000000000000D+00
     .200000000000D+01 -.481250000000D+01  .417767401689D-08  .111623454594D+01
    -.357627868652D-06  .219515443314D-02  .122599303722D-04  .515370141029D+04
     .374384000000D+06 -.353902578354D-07 -.271815348056D+01  .409781932831D-07
     .960736019609D+00  .143000000000D+03  .313489238931D+00 -.781389690874D-08
     .289654922433D-09  .100000000000D+01  .175200000000D+04  .000000000000D+00
     .240000000000D+01  .000000000000D+00  .838190317154D-08  .200000000000D+01
     .368106000000D+06  .400000000000D+01
 6 13  8  8  7 59 44.0  .103801954538D-03 -.186446413863D-10  .000000000000D+00
     .100000000000D+01 -.976562500000D+02  .492199073496D-08 -.241293622121D+01
    -.498443841934D-05  .811414001510D-02  .514090061188D-05  .515368292618D+04
     .374384000000D+06 -.160187482834D-06  .245151434234D+01  .149011611938D-07
     .941922998439D+00  .271562500000D+03 -.252346074564D+00 -.841035032485D-08
    -.312155859687D-09  .100000000000D+01  .175200000000D+04  .000000000000D+00
     .240000000000D+01  .000000000000D+00 -.512227416039D-08  .100000000000D+01
     .369786000000D+06  .400000000000D+01
31 13  8  8  7 59 44.0  .322881620377D-03  .909494701773D-12  .000000000000D+00
     .600000000000D+01  .555000000000D+02  .384301721995D-08  .528150331650D+00
     .276789069176D-05  .786276347935D-02  .111237168312D-04  .515365012741D+04
     .374384000000D+06  .242143869400D-07  .447097358394D+00 -.126659870148D-06
     .980428610033D+00  .177875000000D+03 -.734796298095D+00 -.775460872487D-08
    -.364300888880D-10  .100000000000D+01  .175200000000D+04  .000000000000D+00
     .240000000000D+01  .000000000000D+00 -.130385160446D-07  .600000000000D+01
     .373596000000D+06  .400000000000D+01
19 13  8  8  7 59 44.0 -.394959934056D-03 -.284217094304D-11  .000000000000D+00
     .130000000000D+02 -.105468750000D+03  .435625288399D-08  .252138509603D+01
    -.548735260963D-05  .951101386454D-02  .704824924469D-05  .515373329163D+04
     .374384000000D+06 -.160187482834D-06  .260830727906D+01 -.484287738800D-07
     .963484706628D+00  .246468750000D+03  .357021233699D+00 -.804212070089D-08
    -.368229623956D-09  .100000000000D+01  .175200000000D+04  .000000000000D+00
     .240000000000D+01  .000000000000D+00 -.144354999065D-07  .130000000000D+02
     .374166000000D+06  .400000000000D+01
 1 13  8  8  9 59 44.0  .604442320764D-04  .466116034659D-11  .000000000000D+00
     .300000000000D+01 -.675000000000D+01  .415945897245D-08  .216652397498D+01
    -.379979610443D-06  .219486723654D-02  .119581818581D-04  .515370092773D+04
     .381584000000D+06 -.260770320892D-07 -.271820964930D+01 -.372529029846D-08
     .960737962364D+00  .147562500000D+03  .313361747083D+00 -.781353975101D-08
     .265725354242D-09  .100000000000D+01  .175200000000D+04  .000000000000D+00
     .240000000000D+01  .000000000000D+00  .838190317154D-08  .300000000000D+01
     .374406000000D+06  .400000000000D+01
 6 13  8  8  9 59 44.0  .103667844087D-03 -.186446413863D-10  .000000000000D+00
     .500000000000D+01 -.999687500000D+02  .496449250533D-08 -.136284092725D+01
    -.517442822456D-05  .811406946741D-02  .484660267830D-05  .515368175697D+04
     .381584000000D+06 -.987201929092D-07  .245145310312D+01 -.111758708954D-06
     .941920795285D+00  .277156250000D+03 -.252262818433D+00 -.847999608302D-08
    -.273939982128D-09  .100000000000D+01  .175200000000D+04  .000000000000D+00
     .240000000000D+01  .000000000000D+00 -.512227416039D-08  .500000000000D+01
     .374406000000D+06  .400000000000D+01
19 13  8  8  9 59 44.0 -.394980423152D-03 -.284217094304D-11  .000000000000D+00
     .140000000000D+02 -.104437500000D+03  .434875257157D-08 -.271167652195D+01
    -.539794564247D-05  .951033202000D-02  .671856105328D-05  .515373458672D+04
     .381584000000D+06 -.894069671631D-07  .260824942797D+01 -.115483999252D-06
     .963482165540D+00  .251687500000D+03  .357040266263D+00 -.803247744207D-08
    -.347157317639D-09  .100000000000D+01  .175200000000D+04  .000000000000D+00
     .240000000000D+01  .000000000000D+00 -.144354999065D-07  .140000000000D+02
     .374406000000D+06  .400000000000D+01
31 13  8  8  9 59 44.0  .322888605297D-03  .909494701773D-12  .000000000000D+00
     .700000000000D+01  .467187500000D+02  .392552065655D-08  .157857732034D+01
     .257417559624D-05  .786167534534D-02  .114031136036D-04  .515364606285D+04
     .381584000000D+06  .126659870148D-06  .447042481411D+00  .149011611938D-07
     .980428907005D+00  .165312500000D+03 -.735031424141D+00 -.759138764034D-08
    -.803604901941D-10  .100000000000D+01  .175200000000D+04  .000000000000D+00
     .240000000000D+01  .000000000000D+00 -.130385160446D-07  .700000000000D+01
     .374406000000D+06  .400000000000D+01
 2 13  8  8 10  0  0.0  .445550773293D-03  .181898940355D-11  .000000000000D+00
     .850000000000D+02 -.211562500000D+02  .448340103736D-08  .294436705010D+01
    -.102072954178D-05  .124986653682D-01  .130292028189D-04  .515371260262D+04
     .381600000000D+06 -.577419996262D-07 -.274144536002D+01 -.139698386192D-06
     .939257511960D+00  .112468750000D+03 -.257063419806D+01 -.778639576321D-08
     .309655755548D-09  .100000000000D+01  .175200000000D+04  .000000000000D+00
     .240000000000D+01  .000000000000D+00 -.172294676304D-07  .850000000000D+02
     .374406000000D+06  .400000000000D+01
